{
    "type": "FeatureCollection",
    "features": [
        {
            "type": "Feature",
            "properties": {
                "id": "e5d0a317-fe02-44a9-ab9e-a3f9462f6c5d",
                "height_m": 4.548839092254639,
                "names": null
            },
            "geometry": {
                "type": "Polygon",
                "coordinates": [
                    [
                        [
                            -118.5887668,
                            46.039366
                        ],
                        [
                            -118.5887353,
                            46.0394366
                        ],
                        [
                            -118.5888393,
                            46.0394589
                        ],
                        [
                            -118.58887,
                            46.03939
                        ],
                        [
                            -118.5888517,
                            46.0393861
                        ],
                        [
                            -118.5889035,
                            46.0392698
                        ],
                        [
                            -118.5889757,
                            46.0392853
                        ],
                        [
                            -118.5890015,
                            46.0392276
                        ],
                        [
                            -118.588813,
                            46.0391871
                        ],
                        [
                            -118.5887941,
                            46.0392295
                        ],
                        [
                            -118.5887586,
                            46.0392219
                        ],
                        [
                            -118.5887007,
                            46.0393517
                        ],
                        [
                            -118.5887668,
                            46.039366
                        ]
                    ]
                ]
            }
        },
        {
            "type": "Feature",
            "properties": {
                "id": "2f1dc755-eb8f-4fe7-b311-26ad336d62ac",
                "height_m": 3.9199163913726807,
                "names": null
            },
            "geometry": {
                "type": "Polygon",
                "coordinates": [
                    [
                        [
                            -118.5870421,
                            46.0395389
                        ],
                        [
                            -118.5870398,
                            46.0394532
                        ],
                        [
                            -118.5868494,
                            46.0394558
                        ],
                        [
                            -118.5868517,
                            46.0395414
                        ],
                        [
                            -118.5870421,
                            46.0395389
                        ]
                    ]
                ]
            }
        },
        {
            "type": "Feature",
            "properties": {
                "id": "57bd841d-6b6f-4a46-83d0-0b1c596efaca",
                "height_m": null,
                "names": null
            },
            "geometry": {
                "type": "Polygon",
                "coordinates": [
                    [
                        [
                            -118.586976,
                            46.039327
                        ],
                        [
                            -118.586976,
                            46.039288
                        ],
                        [
                            -118.586892,
                            46.039288
                        ],
                        [
                            -118.586892,
                            46.039251
                        ],
                        [
                            -118.586718,
                            46.039251
                        ],
                        [
                            -118.586718,
                            46.039327
                        ],
                        [
                            -118.586976,
                            46.039327
                        ]
                    ]
                ]
            }
        },
        {
            "type": "Feature",
            "properties": {
                "id": "f0db031f-3f9d-4fad-94df-b836d924de7e",
                "height_m": null,
                "names": null
            },
            "geometry": {
                "type": "Polygon",
                "coordinates": [
                    [
                        [
                            -118.5893468,
                            46.0391461
                        ],
                        [
                            -118.5893248,
                            46.0392575
                        ],
                        [
                            -118.589467,
                            46.0392711
                        ],
                        [
                            -118.589489,
                            46.0391596
                        ],
                        [
                            -118.5893468,
                            46.0391461
                        ]
                    ]
                ]
            }
        },
        {
            "type": "Feature",
            "properties": {
                "id": "b7caa6ce-17bc-4cf2-8ec0-345f96c1dee5",
                "height_m": null,
                "names": null
            },
            "geometry": {
                "type": "Polygon",
                "coordinates": [
                    [
                        [
                            -118.5876527,
                            46.0388053
                        ],
                        [
                            -118.5876579,
                            46.0387392
                        ],
                        [
                            -118.5876017,
                            46.0387371
                        ],
                        [
                            -118.5875965,
                            46.0388032
                        ],
                        [
                            -118.5876527,
                            46.0388053
                        ]
                    ]
                ]
            }
        },
        {
            "type": "Feature",
            "properties": {
                "id": "b1782fe9-a7d0-44b3-9692-7110445f3f35",
                "height_m": null,
                "names": null
            },
            "geometry": {
                "type": "Polygon",
                "coordinates": [
                    [
                        [
                            -118.5877828,
                            46.0386831
                        ],
                        [
                            -118.587803,
                            46.0385178
                        ],
                        [
                            -118.5877498,
                            46.0385147
                        ],
                        [
                            -118.5877537,
                            46.0384822
                        ],
                        [
                            -118.5876353,
                            46.0384752
                        ],
                        [
                            -118.5876111,
                            46.038673
                        ],
                        [
                            -118.5877828,
                            46.0386831
                        ]
                    ]
                ]
            }
        },
        {
            "type": "Feature",
            "properties": {
                "id": "6f40fa6b-87a1-4815-bc8e-4b88854d388c",
                "height_m": null,
                "names": null
            },
            "geometry": {
                "type": "Polygon",
                "coordinates": [
                    [
                        [
                            -118.5871248,
                            46.038837
                        ],
                        [
                            -118.5870673,
                            46.0388348
                        ],
                        [
                            -118.5870617,
                            46.0389027
                        ],
                        [
                            -118.5871192,
                            46.038905
                        ],
                        [
                            -118.5871248,
                            46.038837
                        ]
                    ]
                ]
            }
        }
    ]
}
