{
    "type": "FeatureCollection",
    "crs": {
        "type": "name",
        "properties": {
            "name": "EPSG:4326"
        }
    },
    "features": [
        {
            "type": "Feature",
            "id": 3050337,
            "geometry": {
                "type": "Polygon",
                "coordinates": [
                    [
                        [
                            -118.59047461472,
                            46.0410856681731
                        ],
                        [
                            -118.590466458926,
                            46.0395224000456
                        ],
                        [
                            -118.587761203577,
                            46.0395408225404
                        ],
                        [
                            -118.587757750417,
                            46.0398305092575
                        ],
                        [
                            -118.586182654844,
                            46.0398342281395
                        ],
                        [
                            -118.58617877291,
                            46.0397912069895
                        ],
                        [
                            -118.586177831178,
                            46.0397481050353
                        ],
                        [
                            -118.586194095367,
                            46.0383872291839
                        ],
                        [
                            -118.589147326527,
                            46.0383816237117
                        ],
                        [
                            -118.589144207138,
                            46.0376445777329
                        ],
                        [
                            -118.590697046097,
                            46.0373762469748
                        ],
                        [
                            -118.591720812157,
                            46.0373737916999
                        ],
                        [
                            -118.59174132215,
                            46.0412876659048
                        ],
                        [
                            -118.59047461472,
                            46.0410856681731
                        ]
                    ]
                ]
            },
            "properties": {
                "OBJECTID": 3050337,
                "FIPS_NR": "071",
                "COUNTY_NM": "Walla Walla",
                "PARCEL_ID_NR": "071-340732310005",
                "ORIG_PARCEL_ID": "340732310005",
                "SITUS_ADDRESS": "1280 LOWDEN GARDENA RD",
                "SUB_ADDRESS": null,
                "SITUS_CITY_NM": null,
                "SITUS_ZIP_NR": "99360",
                "LANDUSE_CD": 83,
                "ORIG_LANDUSE_CD": null,
                "VALUE_LAND": 205300,
                "VALUE_BLDG": 523900,
                "DATA_LINK": "https://propertysearch.co.walla-walla.wa.us/PropertyAccess/Property.aspx?cid=0&year=2026&prop_id=2927",
                "GlobalID": "18c5a7ff-7646-4d93-bb37-969daa1cf50d",
                "Shape__Area": 1048268.9586791992,
                "Shape__Length": 5732.768349766257
            }
        }
    ]
}
